{"fetched_at":"2026-07-17T17:37:56.755Z","source":"https://celestrak.org/NORAD/elements/gp.php?GROUP=qianfan&FORMAT=JSON","constellation":"qianfan","records":[{"OBJECT_NAME":"QIANFAN-1","OBJECT_ID":"2024-140A","EPOCH":"2026-07-17T06:04:56.272512","CLASSIFICATION_TYPE":"U","MEAN_MOTION":13.5102056,"ECCENTRICITY":0.00154835,"INCLINATION":88.9732,"RA_OF_ASC_NODE":276.8132,"ARG_OF_PERICENTER":313.8674,"MEAN_ANOMALY":46.1197,"EPHEMERIS_TYPE":0,"NORAD_CAT_ID":60379,"ELEMENT_SET_NO":999,"REV_AT_EPOCH":9658,"BSTAR":0.00013428393,"MEAN_MOTION_DOT":9.9e-7,"MEAN_MOTION_DDOT":0},{"OBJECT_NAME":"QIANFAN-2","OBJECT_ID":"2024-140B","EPOCH":"2026-07-17T04:59:53.409120","CLASSIFICATION_TYPE":"U","MEAN_MOTION":13.51016394,"ECCENTRICITY":0.00103854,"INCLINATION":88.9718,"RA_OF_ASC_NODE":276.6278,"ARG_OF_PERICENTER":282.4045,"MEAN_ANOMALY":77.5943,"EPHEMERIS_TYPE":0,"NORAD_CAT_ID":60380,"ELEMENT_SET_NO":999,"REV_AT_EPOCH":9663,"BSTAR":0.0001479836,"MEAN_MOTION_DOT":0.00000108,"MEAN_MOTION_DDOT":0},{"OBJECT_NAME":"QIANFAN-3","OBJECT_ID":"2024-140C","EPOCH":"2026-07-17T06:58:19.988832","CLASSIFICATION_TYPE":"U","MEAN_MOTION":13.51017459,"ECCENTRICITY":0.00116026,"INCLINATION":88.9711,"RA_OF_ASC_NODE":276.7355,"ARG_OF_PERICENTER":297.2052,"MEAN_ANOMALY":62.7916,"EPHEMERIS_TYPE":0,"NORAD_CAT_ID":60381,"ELEMENT_SET_NO":999,"REV_AT_EPOCH":9655,"BSTAR":0.00014780081,"MEAN_MOTION_DOT":0.00000107,"MEAN_MOTION_DDOT":0},{"OBJECT_NAME":"QIANFAN-4","OBJECT_ID":"2024-140D","EPOCH":"2026-07-17T06:22:39.944640","CLASSIFICATION_TYPE":"U","MEAN_MOTION":13.51020486,"ECCENTRICITY":0.00106201,"INCLINATION":88.9736,"RA_OF_ASC_NODE":276.6902,"ARG_OF_PERICENTER":285.3855,"MEAN_ANOMALY":74.6123,"EPHEMERIS_TYPE":0,"NORAD_CAT_ID":60382,"ELEMENT_SET_NO":999,"REV_AT_EPOCH":9667,"BSTAR":0.00014383537,"MEAN_MOTION_DOT":0.00000105,"MEAN_MOTION_DDOT":0},{"OBJECT_NAME":"QIANFAN-5","OBJECT_ID":"2024-140E","EPOCH":"2026-07-17T05:47:13.816032","CLASSIFICATION_TYPE":"U","MEAN_MOTION":13.51011057,"ECCENTRICITY":0.00130492,"INCLINATION":88.971,"RA_OF_ASC_NODE":276.7652,"ARG_OF_PERICENTER":310.3624,"MEAN_ANOMALY":49.6387,"EPHEMERIS_TYPE":0,"NORAD_CAT_ID":60383,"ELEMENT_SET_NO":999,"REV_AT_EPOCH":9653,"BSTAR":0.00014379132,"MEAN_MOTION_DOT":0.00000105,"MEAN_MOTION_DDOT":0},{"OBJECT_NAME":"QIANFAN-6","OBJECT_ID":"2024-140F","EPOCH":"2026-07-17T06:16:45.693408","CLASSIFICATION_TYPE":"U","MEAN_MOTION":13.51019266,"ECCENTRICITY":0.00107947,"INCLINATION":88.9737,"RA_OF_ASC_NODE":276.5681,"ARG_OF_PERICENTER":292.6425,"MEAN_ANOMALY":67.3584,"EPHEMERIS_TYPE":0,"NORAD_CAT_ID":60384,"ELEMENT_SET_NO":999,"REV_AT_EPOCH":9673,"BSTAR":0.00013664394,"MEAN_MOTION_DOT":0.000001,"MEAN_MOTION_DDOT":0},{"OBJECT_NAME":"QIANFAN-7","OBJECT_ID":"2024-140G","EPOCH":"2026-07-17T05:36:30.019392","CLASSIFICATION_TYPE":"U","MEAN_MOTION":14.27865673,"ECCENTRICITY":0.00168549,"INCLINATION":88.9766,"RA_OF_ASC_NODE":268.2447,"ARG_OF_PERICENTER":55.658,"MEAN_ANOMALY":304.6207,"EPHEMERIS_TYPE":0,"NORAD_CAT_ID":60385,"ELEMENT_SET_NO":999,"REV_AT_EPOCH":10128,"BSTAR":0.00010784829,"MEAN_MOTION_DOT":0.00000282,"MEAN_MOTION_DDOT":0},{"OBJECT_NAME":"QIANFAN-8","OBJECT_ID":"2024-140H","EPOCH":"2026-07-17T06:28:41.576160","CLASSIFICATION_TYPE":"U","MEAN_MOTION":13.51015558,"ECCENTRICITY":0.00142645,"INCLINATION":88.9739,"RA_OF_ASC_NODE":276.8074,"ARG_OF_PERICENTER":294.6055,"MEAN_ANOMALY":65.3609,"EPHEMERIS_TYPE":0,"NORAD_CAT_ID":60386,"ELEMENT_SET_NO":999,"REV_AT_EPOCH":9658,"BSTAR":0.00011914457,"MEAN_MOTION_DOT":8.9e-7,"MEAN_MOTION_DDOT":0},{"OBJECT_NAME":"QIANFAN-9","OBJECT_ID":"2024-140J","EPOCH":"2026-07-17T05:52:59.775456","CLASSIFICATION_TYPE":"U","MEAN_MOTION":13.51021265,"ECCENTRICITY":0.00139483,"INCLINATION":88.9737,"RA_OF_ASC_NODE":276.881,"ARG_OF_PERICENTER":294.458,"MEAN_ANOMALY":65.5115,"EPHEMERIS_TYPE":0,"NORAD_CAT_ID":60387,"ELEMENT_SET_NO":999,"REV_AT_EPOCH":9656,"BSTAR":0.00014572889,"MEAN_MOTION_DOT":0.00000106,"MEAN_MOTION_DDOT":0},{"OBJECT_NAME":"QIANFAN-10","OBJECT_ID":"2024-140K","EPOCH":"2026-07-17T05:58:55.938720","CLASSIFICATION_TYPE":"U","MEAN_MOTION":13.51022491,"ECCENTRICITY":0.00123796,"INCLINATION":88.9747,"RA_OF_ASC_NODE":276.2503,"ARG_OF_PERICENTER":267.7249,"MEAN_ANOMALY":92.2485,"EPHEMERIS_TYPE":0,"NORAD_CAT_ID":60388,"ELEMENT_SET_NO":999,"REV_AT_EPOCH":9669,"BSTAR":0.0001505544,"MEAN_MOTION_DOT":0.00000109,"MEAN_MOTION_DDOT":0},{"OBJECT_NAME":"QIANFAN-11","OBJECT_ID":"2024-140L","EPOCH":"2026-07-17T06:52:20.436096","CLASSIFICATION_TYPE":"U","MEAN_MOTION":13.51016381,"ECCENTRICITY":0.00119868,"INCLINATION":88.9672,"RA_OF_ASC_NODE":276.6707,"ARG_OF_PERICENTER":294.3916,"MEAN_ANOMALY":65.5984,"EPHEMERIS_TYPE":0,"NORAD_CAT_ID":60389,"ELEMENT_SET_NO":999,"REV_AT_EPOCH":9635,"BSTAR":0.00014241914,"MEAN_MOTION_DOT":0.00000104,"MEAN_MOTION_DDOT":0},{"OBJECT_NAME":"QIANFAN-12","OBJECT_ID":"2024-140M","EPOCH":"2026-07-17T05:35:24.366624","CLASSIFICATION_TYPE":"U","MEAN_MOTION":13.51018588,"ECCENTRICITY":0.00109293,"INCLINATION":88.9715,"RA_OF_ASC_NODE":276.814,"ARG_OF_PERICENTER":304.6885,"MEAN_ANOMALY":55.3236,"EPHEMERIS_TYPE":0,"NORAD_CAT_ID":60390,"ELEMENT_SET_NO":999,"REV_AT_EPOCH":9647,"BSTAR":0.00014833543,"MEAN_MOTION_DOT":0.00000108,"MEAN_MOTION_DDOT":0},{"OBJECT_NAME":"QIANFAN-13","OBJECT_ID":"2024-140N","EPOCH":"2026-07-17T04:53:52.353888","CLASSIFICATION_TYPE":"U","MEAN_MOTION":13.51018639,"ECCENTRICITY":0.00107965,"INCLINATION":88.9727,"RA_OF_ASC_NODE":276.9431,"ARG_OF_PERICENTER":308.0724,"MEAN_ANOMALY":51.9453,"EPHEMERIS_TYPE":0,"NORAD_CAT_ID":60391,"ELEMENT_SET_NO":999,"REV_AT_EPOCH":9649,"BSTAR":0.00015250835,"MEAN_MOTION_DOT":0.0000011,"MEAN_MOTION_DDOT":0},{"OBJECT_NAME":"QIANFAN-14","OBJECT_ID":"2024-140P","EPOCH":"2026-07-17T05:29:32.456832","CLASSIFICATION_TYPE":"U","MEAN_MOTION":13.51012218,"ECCENTRICITY":0.00144663,"INCLINATION":88.9706,"RA_OF_ASC_NODE":276.7924,"ARG_OF_PERICENTER":306.5664,"MEAN_ANOMALY":53.4155,"EPHEMERIS_TYPE":0,"NORAD_CAT_ID":60392,"ELEMENT_SET_NO":999,"REV_AT_EPOCH":9650,"BSTAR":0.00014819093,"MEAN_MOTION_DOT":0.00000108,"MEAN_MOTION_DDOT":0},{"OBJECT_NAME":"QIANFAN-15","OBJECT_ID":"2024-140Q","EPOCH":"2026-07-17T05:41:17.905920","CLASSIFICATION_TYPE":"U","MEAN_MOTION":13.51012573,"ECCENTRICITY":0.00100819,"INCLINATION":88.973,"RA_OF_ASC_NODE":276.7995,"ARG_OF_PERICENTER":291.3787,"MEAN_ANOMALY":68.6288,"EPHEMERIS_TYPE":0,"NORAD_CAT_ID":60393,"ELEMENT_SET_NO":999,"REV_AT_EPOCH":9649,"BSTAR":0.0001204692,"MEAN_MOTION_DOT":9e-7,"MEAN_MOTION_DDOT":0},{"OBJECT_NAME":"QIANFAN-16","OBJECT_ID":"2024-140R","EPOCH":"2026-07-17T05:23:33.146880","CLASSIFICATION_TYPE":"U","MEAN_MOTION":13.51020598,"ECCENTRICITY":0.00125087,"INCLINATION":88.9733,"RA_OF_ASC_NODE":276.927,"ARG_OF_PERICENTER":311.791,"MEAN_ANOMALY":48.2172,"EPHEMERIS_TYPE":0,"NORAD_CAT_ID":60394,"ELEMENT_SET_NO":999,"REV_AT_EPOCH":9640,"BSTAR":0.00014033819,"MEAN_MOTION_DOT":0.00000103,"MEAN_MOTION_DDOT":0}]}
