QIANFAN-1               
1 60379U 24140A   26198.25342908  .00000099  00000+0  13428-3 0  9993
2 60379  88.9732 276.8132 0015483 313.8674  46.1197 13.51020560 96585
QIANFAN-2               
1 60380U 24140B   26198.20825705  .00000108  00000+0  14798-3 0  9993
2 60380  88.9718 276.6278 0010385 282.4045  77.5943 13.51016394 96632
QIANFAN-3               
1 60381U 24140C   26198.29050913  .00000107  00000+0  14780-3 0  9994
2 60381  88.9711 276.7355 0011602 297.2052  62.7916 13.51017459 96558
QIANFAN-4               
1 60382U 24140D   26198.26574010  .00000105  00000+0  14384-3 0  9999
2 60382  88.9736 276.6902 0010620 285.3855  74.6123 13.51020486 96670
QIANFAN-5               
1 60383U 24140E   26198.24113213  .00000105  00000+0  14379-3 0  9996
2 60383  88.9710 276.7652 0013049 310.3624  49.6387 13.51011057 96530
QIANFAN-6               
1 60384U 24140F   26198.26163997  .00000100  00000+0  13664-3 0  9994
2 60384  88.9737 276.5681 0010794 292.6425  67.3584 13.51019266 96733
QIANFAN-7               
1 60385U 24140G   26198.23368078  .00000282  00000+0  10785-3 0  9991
2 60385  88.9766 268.2447 0016854  55.6580 304.6207 14.27865673101287
QIANFAN-8               
1 60386U 24140H   26198.26992565  .00000089  00000+0  11914-3 0  9999
2 60386  88.9739 276.8074 0014264 294.6055  65.3609 13.51015558 96582
QIANFAN-9               
1 60387U 24140J   26198.24513629  .00000106  00000+0  14573-3 0  9992
2 60387  88.9737 276.8810 0013948 294.4580  65.5115 13.51021265 96562
QIANFAN-10              
1 60388U 24140K   26198.24925855  .00000109  00000+0  15055-3 0  9990
2 60388  88.9747 276.2503 0012379 267.7249  92.2485 13.51022491 96692
QIANFAN-11              
1 60389U 24140L   26198.28634764  .00000104  00000+0  14242-3 0  9993
2 60389  88.9672 276.6707 0011986 294.3916  65.5984 13.51016381 96351
QIANFAN-12              
1 60390U 24140M   26198.23292091  .00000108  00000+0  14834-3 0  9994
2 60390  88.9715 276.8140 0010929 304.6885  55.3236 13.51018588 96471
QIANFAN-13              
1 60391U 24140N   26198.20407817  .00000110  00000+0  15251-3 0  9993
2 60391  88.9727 276.9431 0010796 308.0724  51.9453 13.51018639 96493
QIANFAN-14              
1 60392U 24140P   26198.22884788  .00000108  00000+0  14819-3 0  9998
2 60392  88.9706 276.7924 0014466 306.5664  53.4155 13.51012218 96505
QIANFAN-15              
1 60393U 24140Q   26198.23701280  .00000090  00000+0  12047-3 0  9996
2 60393  88.9730 276.7995 0010081 291.3787  68.6288 13.51012573 96494
QIANFAN-16              
1 60394U 24140R   26198.22468920  .00000103  00000+0  14034-3 0  9990
2 60394  88.9733 276.9270 0012508 311.7910  48.2172 13.51020598 96400
